{"type":"FeatureCollection", "features": [
{"type":"Feature","geometry":{"type":"Polygon","coordinates":[[[12.1013,50.314],[12.2325,50.2591],[12.3365,50.2586],[12.5102,50.3888],[12.6788,50.3937],[12.8258,50.4414],[12.9184,50.4054],[12.9966,50.4337],[13.0096,50.4927],[13.1601,50.497],[13.2323,50.582],[13.381,50.6255],[13.4479,50.5973],[13.6019,50.7122],[13.8345,50.7237],[13.8925,50.7804],[14.0349,50.8026],[14.2321,50.8794],[14.3465,50.8802],[14.3819,50.9209],[14.25,50.9776],[14.2875,51.0368],[14.4935,51.0167],[14.6346,50.9094],[14.6132,50.8456],[14.7754,50.813],[14.9553,51.064],[15.0195,51.2717],[14.9638,51.3284],[14.9451,51.4492],[14.7068,51.5408],[14.5093,51.5569],[14.3386,51.5099],[14.1588,51.5269],[14.067,51.4739],[13.9703,51.3592],[13.7665,51.348],[13.5217,51.3669],[13.4108,51.4214],[13.2522,51.3852],[13.1982,51.4328],[13.1715,51.5662],[13.0617,51.6151],[12.9147,51.6499],[12.6621,51.6015],[12.4435,51.6015],[12.4306,51.5725],[12.2354,51.5622],[12.157,51.449],[12.1817,51.3248],[12.1323,51.2918],[12.2226,51.089],[12.2646,51.0838],[12.4837,51.0583],[12.5457,50.9713],[12.6472,50.8999],[12.5275,50.8766],[12.4244,50.8243],[12.258,50.7925],[12.2788,50.6797],[12.1869,50.6264],[12.1454,50.5625],[11.9894,50.5461],[11.9053,50.4152],[11.986,50.3516],[12.1013,50.314]]]},"properties":{"iso":"DE-SN","name":"Sachsen","name_de":"Sachsen","country":"DE"}},
{"type":"Feature","geometry":{"type":"Polygon","coordinates":[[[12.1013,50.314],[11.986,50.3516],[11.9053,50.4152],[11.7847,50.4143],[11.5317,50.3784],[11.4212,50.443],[11.4271,50.5131],[11.3467,50.5187],[11.2486,50.4726],[11.2803,50.3586],[11.2553,50.2749],[11.1354,50.3093],[11.1158,50.3638],[10.9776,50.3554],[10.9434,50.3873],[10.7889,50.3863],[10.715,50.3219],[10.8379,50.2717],[10.6171,50.2244],[10.5924,50.3229],[10.238,50.5101],[10.1096,50.5555],[10.055,50.5165],[10.0009,50.4484],[9.8589,50.399],[9.7667,50.4021],[9.7486,50.3056],[9.6612,50.2344],[9.511,50.2362],[9.5067,50.1081],[9.4067,50.0923],[9.3291,50.1393],[9.2288,50.1438],[9.0103,50.0968],[9.0267,49.9074],[9.1467,49.7462],[9.1107,49.5751],[9.2534,49.5776],[9.2938,49.6333],[9.3766,49.6505],[9.4272,49.7082],[9.3136,49.7321],[9.3519,49.7857],[9.491,49.7953],[9.6531,49.7724],[9.6305,49.699],[9.7275,49.6873],[9.7925,49.722],[9.9298,49.5504],[9.9363,49.4817],[10.1275,49.5114],[10.1711,49.3843],[10.1218,49.3695],[10.1598,49.2753],[10.1469,49.2054],[10.2187,49.1551],[10.2744,49.0502],[10.3542,49.0334],[10.4674,48.915],[10.4242,48.702],[10.3131,48.6082],[10.315,48.5311],[10.1534,48.4658],[10.0679,48.4722],[9.9806,48.3813],[10.0541,48.3049],[10.1362,48.1073],[10.087,47.9603],[10.1295,47.8165],[10.1314,47.6879],[9.9533,47.6595],[9.8646,47.6748],[9.7601,47.6204],[9.6122,47.5877],[9.5541,47.5327],[9.8131,47.5418],[9.9487,47.5242],[10.0718,47.4391],[10.0732,47.3655],[10.1909,47.3792],[10.175,47.2724],[10.3059,47.3022],[10.452,47.4388],[10.431,47.5422],[10.5251,47.5285],[10.6079,47.5623],[10.7903,47.5161],[11.0837,47.3895],[11.1686,47.4243],[11.2588,47.4007],[11.4126,47.5061],[11.5512,47.5137],[11.6205,47.5897],[11.8203,47.5753],[11.9359,47.6107],[12.1656,47.604],[12.2023,47.6778],[12.4241,47.6916],[12.4966,47.6289],[12.5634,47.6418],[12.6531,47.6751],[12.7448,47.6654],[12.7789,47.5548],[12.9425,47.4705],[13.0373,47.493],[13.0748,47.6467],[13.0446,47.6966],[12.892,47.7235],[12.9912,47.8471],[12.8482,47.9824],[12.7602,48.0649],[12.745,48.1206],[12.8776,48.202],[13.0328,48.2636],[13.2742,48.3071],[13.4056,48.3766],[13.4564,48.5067],[13.5207,48.5846],[13.7143,48.5232],[13.8024,48.6117],[13.8157,48.7664],[13.7247,48.8673],[13.6087,48.9462],[13.4823,48.9376],[13.3842,48.993],[13.2995,49.0936],[13.1785,49.1183],[12.9998,49.2949],[12.9229,49.3327],[12.7978,49.3278],[12.6435,49.4295],[12.623,49.5098],[12.4969,49.6339],[12.4964,49.67],[12.3836,49.7429],[12.4527,49.7797],[12.5241,49.905],[12.4682,49.9702],[12.2469,50.045],[12.1792,50.118],[12.1827,50.1707],[12.0796,50.2427],[12.1013,50.314]]]},"properties":{"iso":"DE-BY","name":"Bayern","name_de":"Bayern","country":"DE"}},
{"type":"Feature","geometry":{"type":"Polygon","coordinates":[[[6.3734,50.3231],[6.1468,50.214],[6.0964,50.0486],[6.2227,49.8871],[6.4145,49.8055],[6.5001,49.7945],[6.4917,49.7008],[6.3508,49.5666],[6.3488,49.5253],[6.6051,49.5302],[6.7123,49.5503],[6.9364,49.6272],[7.2675,49.5785],[7.3085,49.4854],[7.2461,49.4461],[7.3012,49.3848],[7.3852,49.3697],[7.2947,49.2052],[7.3716,49.1662],[7.4761,49.1515],[7.5209,49.0837],[7.6488,49.0357],[7.7737,49.0481],[7.9319,49.0348],[8.1999,48.9583],[8.2836,49.01],[8.3571,49.1096],[8.3807,49.2149],[8.4799,49.297],[8.4939,49.4426],[8.4168,49.5795],[8.3606,49.6645],[8.4391,49.7265],[8.3401,49.891],[8.3354,49.9596],[8.1738,50.0458],[7.9186,49.9739],[7.7714,50.0535],[7.8963,50.1207],[7.9222,50.2001],[8.1227,50.2779],[8.0223,50.3891],[8.0003,50.5088],[8.1072,50.5265],[8.1638,50.5858],[8.1345,50.684],[8.0563,50.6909],[7.9425,50.832],[7.7705,50.8549],[7.6989,50.7816],[7.5995,50.7334],[7.3869,50.7037],[7.3715,50.6426],[7.1857,50.619],[6.9393,50.5548],[6.7601,50.4707],[6.795,50.3556],[6.7182,50.3416],[6.5856,50.3774],[6.3734,50.3231]]]},"properties":{"iso":"DE-RP","name":"Rheinland-Pfalz","name_de":"Rheinland-Pfalz","country":"DE"}},
{"type":"Feature","geometry":{"type":"Polygon","coordinates":[[[6.3488,49.5253],[6.4027,49.4655],[6.4945,49.4355],[6.5743,49.3618],[6.7256,49.1556],[6.8091,49.1458],[6.8435,49.2111],[7.0095,49.1817],[7.155,49.1144],[7.2681,49.1056],[7.3716,49.1662],[7.2947,49.2052],[7.3852,49.3697],[7.3012,49.3848],[7.2461,49.4461],[7.3085,49.4854],[7.2675,49.5785],[6.9364,49.6272],[6.7123,49.5503],[6.6051,49.5302],[6.3488,49.5253]]]},"properties":{"iso":"DE-SL","name":"Saarland","name_de":"Saarland","country":"DE"}},
{"type":"Feature","geometry":{"type":"MultiPolygon","coordinates":[[[[10.906,53.9612],[10.7526,54.0439],[10.8014,54.0922],[10.9103,54.1092],[11.0666,54.1839],[11.0945,54.2251],[11.0774,54.3422],[10.9353,54.3795],[10.7771,54.3151],[10.2039,54.461],[10.1247,54.4958],[9.8833,54.4621],[10.02,54.5458],[10.0319,54.6528],[9.9705,54.7626],[9.8018,54.7834],[9.5544,54.8471],[9.4514,54.8104],[9.2264,54.8059],[9.1948,54.8504],[8.8242,54.9059],[8.6608,54.8963],[8.6484,54.8179],[8.6887,54.7353],[8.8054,54.6876],[8.8533,54.6193],[9.0116,54.5063],[9.0047,54.4659],[8.8607,54.4138],[8.6292,54.3877],[8.6027,54.3121],[8.6519,54.2748],[8.888,54.3039],[8.8128,54.1805],[9.0183,54.0979],[8.9972,54.0302],[8.8333,54.0364],[8.916,53.9374],[9.0078,53.8925],[9.2205,53.8908],[9.3952,53.831],[9.4358,53.7487],[9.5322,53.7112],[9.5508,53.6346],[9.7408,53.5726],[10.1423,53.7133],[10.2228,53.6337],[10.1832,53.529],[10.328,53.4327],[10.5284,53.3724],[10.6012,53.3718],[10.6354,53.4452],[10.8204,53.5148],[10.8283,53.5674],[10.9544,53.5661],[10.9381,53.6847],[10.7609,53.7467],[10.7633,53.8651],[10.906,53.9612]]],[[[11.2556,54.4787],[11.1213,54.536],[11.0057,54.4685],[11.1885,54.4262],[11.2556,54.4787]]]]},"properties":{"iso":"DE-SH","name":"Schleswig-Holstein","name_de":"Schleswig-Holstein","country":"DE"}},
{"type":"Feature","geometry":{"type":"Polygon","coordinates":[[[17.0625,48.1127],[16.9819,48.1613],[16.9506,48.2766],[16.8445,48.3656],[16.8608,48.4438],[16.9543,48.5574],[16.873,48.719],[16.662,48.74],[16.6431,48.7783],[16.4357,48.7945],[16.3583,48.7273],[16.0323,48.7581],[15.8185,48.8723],[15.6813,48.8585],[15.4719,48.9367],[15.2629,48.9826],[14.9821,49.0079],[14.9682,48.885],[14.9193,48.7616],[14.8004,48.7765],[14.7038,48.6731],[14.6911,48.5865],[14.9064,48.5271],[14.9754,48.3336],[14.9686,48.2474],[14.6755,48.1825],[14.565,48.2442],[14.4849,48.2184],[14.4454,48.043],[14.7507,47.9019],[14.6993,47.7689],[14.8834,47.7247],[15.1871,47.7804],[15.2297,47.8193],[15.3391,47.8254],[15.5387,47.7474],[15.7261,47.6902],[15.7432,47.6367],[15.9167,47.5332],[16.0804,47.5165],[16.1479,47.443],[16.2309,47.4455],[16.3245,47.5013],[16.3212,47.5717],[16.3758,47.6449],[16.2893,47.7325],[16.2897,47.7936],[16.4393,47.9281],[16.5732,47.9198],[16.7045,48.0092],[17.0625,48.1127]],[[16.4826,48.2885],[16.5561,48.249],[16.5714,48.1531],[16.2326,48.1492],[16.1882,48.2301],[16.4464,48.3281],[16.4826,48.2885]]]},"properties":{"iso":"AT-3","name":"Niederösterreich","name_de":"Niederösterreich","country":"AT"}},
{"type":"Feature","geometry":{"type":"Polygon","coordinates":[[[14.6911,48.5865],[14.4436,48.6365],[14.3157,48.5579],[14.0748,48.5917],[13.9823,48.7065],[13.8157,48.7664],[13.8024,48.6117],[13.7143,48.5232],[13.5207,48.5846],[13.4564,48.5067],[13.4056,48.3766],[13.2742,48.3071],[13.0328,48.2636],[12.8776,48.202],[12.745,48.1206],[12.7602,48.0649],[12.8482,47.9824],[12.9684,48.0316],[13.1389,47.9872],[13.3029,48.0099],[13.2713,47.9122],[13.3168,47.825],[13.4976,47.7979],[13.5256,47.7175],[13.489,47.6415],[13.4889,47.5358],[13.5818,47.4864],[13.6744,47.4742],[13.7303,47.546],[13.6814,47.5976],[13.6872,47.664],[13.8233,47.7205],[13.9967,47.6986],[14.0597,47.626],[14.195,47.6577],[14.3473,47.6257],[14.4916,47.6954],[14.6993,47.7689],[14.7507,47.9019],[14.4454,48.043],[14.4849,48.2184],[14.565,48.2442],[14.6755,48.1825],[14.9686,48.2474],[14.9754,48.3336],[14.9064,48.5271],[14.6911,48.5865]]]},"properties":{"iso":"AT-4","name":"Oberösterreich","name_de":"Oberösterreich","country":"AT"}},
{"type":"Feature","geometry":{"type":"Polygon","coordinates":[[[16.0284,46.8369],[16.2307,46.9484],[16.2749,47.0043],[16.4372,47.0318],[16.5095,47.1375],[16.4128,47.1872],[16.4692,47.2932],[16.425,47.3511],[16.6409,47.4529],[16.688,47.5226],[16.6302,47.622],[16.4819,47.639],[16.5311,47.743],[16.6098,47.7506],[16.7975,47.6755],[17.0548,47.702],[17.0395,47.8374],[17.0961,47.9619],[17.0625,48.1127],[16.7045,48.0092],[16.5732,47.9198],[16.4393,47.9281],[16.2897,47.7936],[16.2893,47.7325],[16.3758,47.6449],[16.3212,47.5717],[16.3245,47.5013],[16.2309,47.4455],[16.1479,47.443],[16.02,47.3724],[16.095,47.1651],[16.0895,47.0829],[16.1363,47.0249],[16.0186,46.9228],[16.0284,46.8369]]]},"properties":{"iso":"AT-1","name":"Burgenland","name_de":"Burgenland","country":"AT"}},
{"type":"Feature","geometry":{"type":"Polygon","coordinates":[[[6.7881,46.405],[6.7504,46.3455],[6.8277,46.2695],[6.7743,46.1348],[6.8539,46.1226],[7.0669,45.8902],[7.1837,45.8805],[7.3618,45.9078],[7.5411,45.9841],[7.694,45.9287],[7.8312,45.9145],[7.8982,45.9819],[7.9858,45.9993],[8.0182,46.0809],[8.1106,46.127],[8.1295,46.196],[8.0773,46.262],[8.1926,46.3092],[8.3859,46.4502],[8.4769,46.5318],[8.4076,46.5932],[8.4094,46.6557],[8.3387,46.5663],[8.1903,46.5219],[8.0031,46.5574],[7.9661,46.5157],[7.7231,46.4202],[7.6244,46.4434],[7.4947,46.374],[7.4042,46.3786],[7.2278,46.3314],[7.1842,46.2706],[7.0449,46.1899],[6.8546,46.3977],[6.7881,46.405]]]},"properties":{"iso":"CH-VS","name":"Valais","name_de":"Kanton Wallis","country":"CH"}},
{"type":"Feature","geometry":{"type":"Polygon","coordinates":[[[8.3859,46.4502],[8.4416,46.4349],[8.4272,46.2514],[8.6018,46.1228],[8.8344,46.0664],[8.7679,45.9831],[8.871,45.9471],[8.9396,45.8348],[9.0024,45.8207],[9.0593,45.882],[9.0017,45.9361],[9.0021,46.0393],[9.0721,46.1189],[9.1638,46.173],[9.0875,46.2206],[9.057,46.299],[9.0978,46.4161],[9.0152,46.5335],[9.0385,46.5907],[8.956,46.6306],[8.7884,46.5681],[8.6779,46.5836],[8.5487,46.585],[8.4769,46.5318],[8.3859,46.4502]]]},"properties":{"iso":"CH-TI","name":"Ticino","name_de":"Kanton Tessin","country":"CH"}},
{"type":"Feature","geometry":{"type":"Polygon","coordinates":[[[9.1638,46.173],[9.269,46.3094],[9.2632,46.4851],[9.4379,46.492],[9.4516,46.3704],[9.5597,46.2927],[9.6743,46.2918],[9.899,46.3722],[9.964,46.3561],[10.0427,46.2205],[10.1589,46.2624],[10.0918,46.329],[10.1334,46.414],[10.0263,46.4463],[10.0328,46.533],[10.0975,46.608],[10.1921,46.6268],[10.2954,46.5511],[10.4259,46.5353],[10.4666,46.6043],[10.3692,46.6724],[10.4287,46.7556],[10.4538,46.8644],[10.4585,46.9366],[10.3679,46.9955],[10.1252,46.8468],[9.8624,46.9398],[9.858,47.0155],[9.6691,47.0562],[9.5812,47.0569],[9.477,47.0639],[9.532,46.9833],[9.4612,46.8938],[9.2409,46.9203],[9.0032,46.8196],[8.8717,46.8154],[8.7853,46.7333],[8.6794,46.6946],[8.6779,46.5836],[8.7884,46.5681],[8.956,46.6306],[9.0385,46.5907],[9.0152,46.5335],[9.0978,46.4161],[9.057,46.299],[9.0875,46.2206],[9.1638,46.173]]]},"properties":{"iso":"CH-GR","name":"Graubünden","name_de":"Kanton Graubünden","country":"CH"}},
{"type":"Feature","geometry":{"type":"Polygon","coordinates":[[[9.5812,47.0569],[9.6691,47.0562],[9.858,47.0155],[9.8624,46.9398],[10.1252,46.8468],[10.0834,46.908],[10.1204,46.9552],[10.1382,47.0773],[10.2021,47.161],[10.175,47.2724],[10.1909,47.3792],[10.0732,47.3655],[10.0718,47.4391],[9.9487,47.5242],[9.8131,47.5418],[9.5541,47.5327],[9.5475,47.5345],[9.5531,47.5169],[9.6503,47.4521],[9.6495,47.4097],[9.5212,47.2628],[9.6157,47.1068],[9.5812,47.0569]]]},"properties":{"iso":"AT-8","name":"Vorarlberg","name_de":"Vorarlberg","country":"AT"}},
{"type":"Feature","geometry":{"type":"MultiPolygon","coordinates":[[[[10.1252,46.8468],[10.3679,46.9955],[10.4585,46.9366],[10.4538,46.8644],[10.5277,46.8432],[10.6625,46.861],[10.7548,46.7908],[10.8803,46.7646],[10.9969,46.7691],[11.0546,46.8199],[11.0919,46.9124],[11.1566,46.9565],[11.3138,46.9873],[11.5965,47.0004],[11.7464,46.9725],[11.9436,47.0382],[12.1331,47.0788],[12.0843,47.1764],[12.096,47.2799],[12.3155,47.3328],[12.4574,47.3334],[12.5018,47.3852],[12.6138,47.4196],[12.6788,47.4989],[12.6576,47.5708],[12.5634,47.6418],[12.4966,47.6289],[12.4241,47.6916],[12.2023,47.6778],[12.1656,47.604],[11.9359,47.6107],[11.8203,47.5753],[11.6205,47.5897],[11.5512,47.5137],[11.4126,47.5061],[11.2588,47.4007],[11.1686,47.4243],[11.0837,47.3895],[10.7903,47.5161],[10.6079,47.5623],[10.5251,47.5285],[10.431,47.5422],[10.452,47.4388],[10.3059,47.3022],[10.175,47.2724],[10.2021,47.161],[10.1382,47.0773],[10.1204,46.9552],[10.0834,46.908],[10.1252,46.8468]]],[[[12.2039,47.067],[12.1112,46.993],[12.1951,46.8801],[12.2666,46.8681],[12.2691,46.7886],[12.3427,46.7651],[12.405,46.6901],[12.562,46.6512],[12.6714,46.6525],[12.7243,46.7489],[12.9453,46.7752],[12.8288,46.876],[12.735,47.0042],[12.7443,47.058],[12.6338,47.112],[12.5777,47.1442],[12.38,47.1442],[12.2039,47.067]]]]},"properties":{"iso":"AT-7","name":"Tirol","name_de":"Tirol","country":"AT"}},
{"type":"Feature","geometry":{"type":"Polygon","coordinates":[[[8.5572,53.5199],[8.5134,53.5548],[8.2489,53.5903],[8.2312,53.5252],[8.3205,53.5092],[8.2928,53.4405],[8.2053,53.4107],[8.0862,53.4561],[8.0588,53.502],[8.168,53.5532],[8.0529,53.6363],[8.0314,53.7081],[7.9514,53.7219],[7.5039,53.6787],[7.4588,53.6951],[7.2261,53.6665],[7.0868,53.5869],[7.0233,53.4505],[7.0752,53.3376],[7.2547,53.3195],[7.1946,53.245],[7.1727,53.1258],[7.1836,52.9661],[7.0799,52.8544],[7.0367,52.6474],[6.7705,52.641],[6.7018,52.6191],[6.6951,52.4756],[6.9002,52.4319],[6.9733,52.4514],[7.0482,52.3651],[7.0266,52.2386],[7.3006,52.2718],[7.5616,52.3718],[7.6091,52.4756],[7.8293,52.3627],[7.9058,52.3773],[7.9736,52.3121],[7.9036,52.2004],[8.0175,52.1741],[8.0229,52.0662],[8.181,52.0831],[8.2669,52.1336],[8.3936,52.1113],[8.4862,52.17],[8.4277,52.3668],[8.3339,52.3984],[8.4967,52.5065],[8.6321,52.5239],[8.7036,52.4802],[8.7067,52.4073],[8.8267,52.3888],[8.9612,52.4091],[9.0812,52.4976],[9.1284,52.4085],[9.018,52.3411],[8.9833,52.265],[9.0036,52.1334],[9.1355,52.1319],[9.1898,52.075],[9.21,51.9716],[9.4609,51.8317],[9.3898,51.7294],[9.4401,51.649],[9.6234,51.6295],[9.6713,51.5593],[9.5968,51.5116],[9.6386,51.4087],[9.5694,51.3423],[9.6826,51.315],[9.808,51.4073],[9.9492,51.3818],[10.0457,51.4321],[10.1497,51.4318],[10.3646,51.5424],[10.4217,51.5919],[10.5142,51.5563],[10.6542,51.5782],[10.6976,51.6374],[10.5853,51.7779],[10.5802,51.8449],[10.6399,51.8836],[10.5902,51.9762],[10.6608,52.0447],[10.9456,52.0577],[11.0382,52.1317],[11.0829,52.2251],[10.9993,52.3425],[11.073,52.3722],[10.9391,52.4621],[11.0017,52.4981],[10.9527,52.5933],[10.7569,52.7865],[10.762,52.8384],[10.9607,52.8651],[11.0147,52.9119],[11.2643,52.8775],[11.502,52.9442],[11.5813,53.0429],[11.2741,53.1175],[11.1434,53.1727],[11.0894,53.1442],[10.7394,53.3085],[10.7316,53.352],[10.6012,53.3718],[10.5284,53.3724],[10.328,53.4327],[10.1865,53.4044],[10.0831,53.4509],[9.9093,53.4181],[9.8106,53.4624],[9.764,53.5477],[9.5671,53.5996],[9.2747,53.8651],[9.1145,53.8651],[8.8607,53.831],[8.6846,53.8885],[8.5733,53.8577],[8.4922,53.7152],[8.513,53.6171],[8.6253,53.605],[8.6391,53.5167],[8.5572,53.5199]],[[8.5645,53.2118],[8.7455,53.1916],[8.9899,53.0936],[8.9145,53.0246],[8.7027,53.0799],[8.5645,53.2118]]]},"properties":{"iso":"DE-NI","name":"Niedersachsen","name_de":"Niedersachsen","country":"DE"}},
{"type":"Feature","geometry":{"type":"Polygon","coordinates":[[[7.0266,52.2386],[6.8307,52.1129],[6.7659,52.1084],[6.675,52.0348],[6.804,51.9844],[6.7167,51.8993],[6.5286,51.8764],[6.3825,51.8276],[6.2252,51.8625],[6.0433,51.8469],[5.928,51.8067],[5.9393,51.7319],[6.0992,51.6445],[6.0865,51.5955],[6.1933,51.5093],[6.1836,51.3357],[6.0652,51.2316],[6.1324,51.1398],[5.9829,51.0747],[5.8746,50.9654],[6.0037,50.9737],[6.0637,50.9075],[5.973,50.7818],[6.2329,50.5871],[6.1607,50.5436],[6.1992,50.4904],[6.3187,50.4817],[6.3734,50.3231],[6.5856,50.3774],[6.7182,50.3416],[6.795,50.3556],[6.7601,50.4707],[6.9393,50.5548],[7.1857,50.619],[7.3715,50.6426],[7.3869,50.7037],[7.5995,50.7334],[7.6989,50.7816],[7.7705,50.8549],[7.9425,50.832],[8.0563,50.6909],[8.1345,50.684],[8.1393,50.785],[8.2684,50.8684],[8.3641,50.8616],[8.5449,51.0207],[8.5247,51.0933],[8.6584,51.0884],[8.7502,51.1728],[8.7242,51.2658],[8.5781,51.2759],[8.6855,51.3634],[8.9351,51.3913],[8.9062,51.4809],[9.0154,51.5092],[9.1087,51.4429],[9.336,51.554],[9.3459,51.6123],[9.4401,51.649],[9.3898,51.7294],[9.4609,51.8317],[9.21,51.9716],[9.1898,52.075],[9.1355,52.1319],[9.0036,52.1334],[8.9833,52.265],[9.018,52.3411],[9.1284,52.4085],[9.0812,52.4976],[8.9612,52.4091],[8.8267,52.3888],[8.7067,52.4073],[8.7036,52.4802],[8.6321,52.5239],[8.4967,52.5065],[8.3339,52.3984],[8.4277,52.3668],[8.4862,52.17],[8.3936,52.1113],[8.2669,52.1336],[8.181,52.0831],[8.0229,52.0662],[8.0175,52.1741],[7.9036,52.2004],[7.9736,52.3121],[7.9058,52.3773],[7.8293,52.3627],[7.6091,52.4756],[7.5616,52.3718],[7.3006,52.2718],[7.0266,52.2386]]]},"properties":{"iso":"DE-NW","name":"Nordrhein-Westfalen","name_de":"Nordrhein-Westfalen","country":"DE"}},
{"type":"Feature","geometry":{"type":"Polygon","coordinates":[[[12.2039,47.067],[12.38,47.1442],[12.5777,47.1442],[12.6338,47.112],[12.9144,47.076],[13.0595,47.0288],[13.1735,47.0375],[13.3082,47.0872],[13.6062,47.0442],[13.7823,46.9542],[13.9372,47.1506],[13.7967,47.3021],[13.6941,47.2745],[13.6307,47.3056],[13.5652,47.4454],[13.5818,47.4864],[13.4889,47.5358],[13.489,47.6415],[13.5256,47.7175],[13.4976,47.7979],[13.3168,47.825],[13.2713,47.9122],[13.3029,48.0099],[13.1389,47.9872],[12.9684,48.0316],[12.8482,47.9824],[12.9912,47.8471],[12.892,47.7235],[13.0446,47.6966],[13.0748,47.6467],[13.0373,47.493],[12.9425,47.4705],[12.7789,47.5548],[12.7448,47.6654],[12.6531,47.6751],[12.5634,47.6418],[12.6576,47.5708],[12.6788,47.4989],[12.6138,47.4196],[12.5018,47.3852],[12.4574,47.3334],[12.3155,47.3328],[12.096,47.2799],[12.0843,47.1764],[12.1331,47.0788],[12.2039,47.067]]]},"properties":{"iso":"AT-5","name":"Salzburg","name_de":"Salzburg","country":"AT"}},
{"type":"Feature","geometry":{"type":"Polygon","coordinates":[[[12.6714,46.6525],[12.8304,46.6096],[13.0645,46.598],[13.2311,46.5522],[13.478,46.5636],[13.6703,46.5187],[13.8909,46.5118],[14.05,46.4844],[14.1499,46.4401],[14.4065,46.4393],[14.5022,46.4184],[14.68,46.4589],[14.7886,46.5066],[14.8504,46.6011],[15.1056,46.6463],[15.0347,46.7033],[14.9869,46.8422],[15.0083,46.9112],[14.8499,47.0413],[14.616,47.0168],[14.4966,47.023],[14.3946,46.9982],[14.2006,47.0567],[14.0267,47.0175],[13.9789,46.973],[13.8439,46.9227],[13.7823,46.9542],[13.6062,47.0442],[13.3082,47.0872],[13.1735,47.0375],[13.0595,47.0288],[12.9144,47.076],[12.6338,47.112],[12.7443,47.058],[12.735,47.0042],[12.8288,46.876],[12.9453,46.7752],[12.7243,46.7489],[12.6714,46.6525]]]},"properties":{"iso":"AT-2","name":"Kärnten","name_de":"Kärnten","country":"AT"}},
{"type":"Feature","geometry":{"type":"Polygon","coordinates":[[[9.5475,47.5345],[9.5541,47.5327],[9.6122,47.5877],[9.7601,47.6204],[9.8646,47.6748],[9.9533,47.6595],[10.1314,47.6879],[10.1295,47.8165],[10.087,47.9603],[10.1362,48.1073],[10.0541,48.3049],[9.9806,48.3813],[10.0679,48.4722],[10.1534,48.4658],[10.315,48.5311],[10.3131,48.6082],[10.4242,48.702],[10.4674,48.915],[10.3542,49.0334],[10.2744,49.0502],[10.2187,49.1551],[10.1469,49.2054],[10.1598,49.2753],[10.1218,49.3695],[10.1711,49.3843],[10.1275,49.5114],[9.9363,49.4817],[9.9298,49.5504],[9.7925,49.722],[9.7275,49.6873],[9.6305,49.699],[9.6531,49.7724],[9.491,49.7953],[9.3519,49.7857],[9.3136,49.7321],[9.4272,49.7082],[9.3766,49.6505],[9.2938,49.6333],[9.2534,49.5776],[9.1107,49.5751],[9.0351,49.5013],[8.8168,49.4022],[8.8284,49.5028],[8.7181,49.5418],[8.6715,49.6226],[8.4982,49.5734],[8.4168,49.5795],[8.4939,49.4426],[8.4799,49.297],[8.3807,49.2149],[8.3571,49.1096],[8.2836,49.01],[8.1999,48.9583],[8.1027,48.8213],[7.9701,48.7573],[7.9484,48.7119],[7.8103,48.615],[7.7383,48.4066],[7.752,48.3553],[7.5726,48.095],[7.6189,48.0027],[7.5259,47.7832],[7.5218,47.6704],[7.586,47.5846],[7.6469,47.5514],[7.7273,47.5504],[7.8197,47.5953],[7.9122,47.5606],[8.0872,47.5674],[8.179,47.6158],[8.4211,47.5811],[8.5517,47.5969],[8.5763,47.595],[8.5936,47.6582],[8.4583,47.6399],[8.391,47.6921],[8.4636,47.7639],[8.5582,47.8012],[8.635,47.7846],[8.8519,47.6713],[9.0166,47.6789],[9.2732,47.6501],[9.5475,47.5345]]]},"properties":{"iso":"DE-BW","name":"Baden-Württemberg","name_de":"Baden-Württemberg","country":"DE"}},
{"type":"Feature","geometry":{"type":"Polygon","coordinates":[[[8.8519,47.6713],[8.635,47.7846],[8.5582,47.8012],[8.4636,47.7639],[8.391,47.6921],[8.4583,47.6399],[8.5936,47.6582],[8.64,47.6963],[8.7885,47.6626],[8.8519,47.6713]]]},"properties":{"iso":"CH-SH","name":"Schaffhausen","name_de":"Kanton Schaffhausen","country":"CH"}},
{"type":"Feature","geometry":{"type":"Polygon","coordinates":[[[8.8519,47.6713],[8.7885,47.6626],[8.8359,47.5488],[8.8911,47.5249],[8.8925,47.4086],[8.9324,47.38],[9.0312,47.4964],[9.2557,47.4774],[9.5531,47.5169],[9.5475,47.5345],[9.2732,47.6501],[9.0166,47.6789],[8.8519,47.6713]]]},"properties":{"iso":"CH-TG","name":"Thurgau","name_de":"Kanton Thurgau","country":"CH"}},
{"type":"Feature","geometry":{"type":"Polygon","coordinates":[[[8.5936,47.6582],[8.5763,47.595],[8.5517,47.5969],[8.4211,47.5811],[8.3526,47.4876],[8.4035,47.4104],[8.4074,47.2455],[8.5708,47.2173],[8.6835,47.1654],[8.7754,47.2206],[8.9207,47.2691],[8.9691,47.3173],[8.9324,47.38],[8.8925,47.4086],[8.8911,47.5249],[8.8359,47.5488],[8.7885,47.6626],[8.64,47.6963],[8.5936,47.6582]]]},"properties":{"iso":"CH-ZH","name":"Zürich","name_de":"Kanton Zürich","country":"CH"}},
{"type":"Feature","geometry":{"type":"Polygon","coordinates":[[[8.4211,47.5811],[8.179,47.6158],[8.0872,47.5674],[7.9122,47.5606],[7.8197,47.5953],[7.7273,47.5504],[7.8494,47.5453],[7.9549,47.4577],[8.0291,47.3792],[7.9816,47.3283],[7.9019,47.3383],[7.8229,47.269],[7.8393,47.2318],[8.0893,47.2612],[8.1998,47.2321],[8.2886,47.2681],[8.3368,47.1733],[8.4056,47.1423],[8.4074,47.2455],[8.4035,47.4104],[8.3526,47.4876],[8.4211,47.5811]]]},"properties":{"iso":"CH-AG","name":"Aargau","name_de":"Kanton Aargau","country":"CH"}},
{"type":"Feature","geometry":{"type":"Polygon","coordinates":[[[7.6469,47.5514],[7.586,47.5846],[7.5209,47.5634],[7.6469,47.5514]]]},"properties":{"iso":"CH-BS","name":"Basel-Stadt","name_de":"Kanton Basel-Stadt","country":"CH"}},
{"type":"Feature","geometry":{"type":"MultiPolygon","coordinates":[[[[7.7273,47.5504],[7.6469,47.5514],[7.5209,47.5634],[7.4858,47.4988],[7.446,47.4869],[7.4206,47.4509],[7.3842,47.4131],[7.4371,47.3793],[7.5068,47.3886],[7.7134,47.4673],[7.6538,47.3681],[7.8053,47.3636],[7.9289,47.4078],[7.9549,47.4577],[7.8494,47.5453],[7.7273,47.5504]]],[[[7.3882,47.4333],[7.3369,47.4319],[7.3842,47.4131],[7.3882,47.4333]]]]},"properties":{"iso":"CH-BL","name":"Basel-Landschaft","name_de":"Kanton Basel-Landschaft","country":"CH"}},
{"type":"Feature","geometry":{"type":"Polygon","coordinates":[[[9.5531,47.5169],[9.2557,47.4774],[9.0312,47.4964],[8.9324,47.38],[8.9691,47.3173],[8.9207,47.2691],[8.7754,47.2206],[8.9241,47.2205],[8.9851,47.1689],[9.1799,47.1222],[9.1578,47.0312],[9.2378,46.9923],[9.2409,46.9203],[9.4612,46.8938],[9.532,46.9833],[9.477,47.0639],[9.485,47.1763],[9.5212,47.2628],[9.6495,47.4097],[9.6503,47.4521],[9.5531,47.5169]],[[9.4882,47.3534],[9.4378,47.261],[9.3315,47.2531],[9.2174,47.2715],[9.1861,47.3577],[9.226,47.4003],[9.4154,47.4164],[9.5264,47.4683],[9.6084,47.4498],[9.5815,47.4244],[9.5405,47.3972],[9.4866,47.3936],[9.4882,47.3534]]]},"properties":{"iso":"CH-SG","name":"Sankt Gallen","name_de":"Kanton St. Gallen","country":"CH"}},
{"type":"Feature","geometry":{"type":"MultiPolygon","coordinates":[[[[7.3882,47.4333],[7.3842,47.4131],[7.4206,47.4509],[7.3882,47.4333]]],[[[7.559,47.3207],[7.5563,47.3182],[7.3488,47.2166],[7.4376,47.1243],[7.6769,47.1788],[7.5834,47.2776],[7.6863,47.2942],[7.8229,47.269],[7.9019,47.3383],[7.9816,47.3283],[8.0291,47.3792],[7.9549,47.4577],[7.9289,47.4078],[7.8053,47.3636],[7.6538,47.3681],[7.7134,47.4673],[7.5068,47.3886],[7.4371,47.3793],[7.5545,47.344],[7.559,47.3207]]]]},"properties":{"iso":"CH-SO","name":"Solothurn","name_de":"Kanton Solothurn","country":"CH"}},
{"type":"Feature","geometry":{"type":"Polygon","coordinates":[[[7.3369,47.4319],[7.2448,47.4177],[7.1037,47.4963],[6.8988,47.3957],[7.0443,47.3405],[6.9586,47.2906],[6.9562,47.2452],[6.8381,47.1681],[6.8498,47.1651],[6.9935,47.1844],[7.0743,47.2432],[7.1547,47.2475],[7.3872,47.3126],[7.5563,47.3182],[7.559,47.3207],[7.5545,47.344],[7.4371,47.3793],[7.3842,47.4131],[7.3369,47.4319]]]},"properties":{"iso":"CH-JU","name":"Jura","name_de":"Kanton Jura","country":"CH"}},
{"type":"Feature","geometry":{"type":"Polygon","coordinates":[[[6.1186,46.3318],[6.0897,46.2464],[5.9585,46.212],[5.9829,46.1404],[6.1403,46.1502],[6.2812,46.2401],[6.2166,46.3095],[6.1186,46.3318]]]},"properties":{"iso":"CH-GE","name":"Genève","name_de":"Kanton Genf","country":"CH"}},
{"type":"Feature","geometry":{"type":"MultiPolygon","coordinates":[[[[6.1186,46.3318],[6.2166,46.3095],[6.3016,46.3945],[6.4829,46.4486],[6.6137,46.4559],[6.7881,46.405],[6.8546,46.3977],[7.0449,46.1899],[7.1842,46.2706],[7.2278,46.3314],[7.2004,46.3847],[7.2425,46.5561],[7.0003,46.4445],[6.9747,46.4904],[6.807,46.5807],[6.94,46.741],[7.0006,46.8412],[6.9074,46.9255],[6.8751,46.9072],[6.9296,46.8522],[6.9185,46.7862],[6.7935,46.7904],[6.766,46.8453],[6.7255,46.939],[6.5131,46.8554],[6.4431,46.8515],[6.4292,46.7608],[6.1319,46.5956],[6.1457,46.5516],[6.0642,46.4711],[6.1351,46.3704],[6.1186,46.3318]]],[[[7.0211,46.9897],[6.9459,46.9472],[7.0391,46.8621],[7.0941,46.9077],[7.0624,46.9782],[7.0211,46.9897]]]]},"properties":{"iso":"CH-VD","name":"Vaud","name_de":"Kanton Waadt","country":"CH"}},
{"type":"Feature","geometry":{"type":"Polygon","coordinates":[[[6.4431,46.8515],[6.5131,46.8554],[6.7255,46.939],[6.766,46.8453],[6.8751,46.9072],[6.9074,46.9255],[6.9459,46.9472],[7.0211,46.9897],[7.0825,47.096],[7.0391,47.1234],[6.8798,47.0898],[6.8498,47.1651],[6.8381,47.1681],[6.6991,47.0846],[6.6654,47.0213],[6.4426,46.9442],[6.4431,46.8515]]]},"properties":{"iso":"CH-NE","name":"Neuchâtel","name_de":"Kanton Neuenburg","country":"CH"}},
{"type":"Feature","geometry":{"type":"Polygon","coordinates":[[[16.0284,46.8369],[16.0186,46.9228],[16.1363,47.0249],[16.0895,47.0829],[16.095,47.1651],[16.02,47.3724],[16.1479,47.443],[16.0804,47.5165],[15.9167,47.5332],[15.7432,47.6367],[15.7261,47.6902],[15.5387,47.7474],[15.3391,47.8254],[15.2297,47.8193],[15.1871,47.7804],[14.8834,47.7247],[14.6993,47.7689],[14.4916,47.6954],[14.3473,47.6257],[14.195,47.6577],[14.0597,47.626],[13.9967,47.6986],[13.8233,47.7205],[13.6872,47.664],[13.6814,47.5976],[13.7303,47.546],[13.6744,47.4742],[13.5818,47.4864],[13.5652,47.4454],[13.6307,47.3056],[13.6941,47.2745],[13.7967,47.3021],[13.9372,47.1506],[13.7823,46.9542],[13.8439,46.9227],[13.9789,46.973],[14.0267,47.0175],[14.2006,47.0567],[14.3946,46.9982],[14.4966,47.023],[14.616,47.0168],[14.8499,47.0413],[15.0083,46.9112],[14.9869,46.8422],[15.0347,46.7033],[15.1056,46.6463],[15.3881,46.6456],[15.4627,46.6146],[15.6521,46.7108],[15.7551,46.704],[15.9705,46.743],[16.0284,46.8369]]]},"properties":{"iso":"AT-6","name":"Steiermark","name_de":"Steiermark","country":"AT"}},
{"type":"Feature","geometry":{"type":"Polygon","coordinates":[[[14.7068,51.5408],[14.7439,51.6066],[14.7195,51.6756],[14.5858,51.8039],[14.6956,51.9315],[14.7614,52.0767],[14.6864,52.121],[14.6969,52.2535],[14.6066,52.2758],[14.5398,52.4219],[14.6323,52.4967],[14.6448,52.5769],[14.4319,52.6861],[14.3822,52.7382],[14.216,52.818],[14.1445,52.9599],[14.3433,53.0486],[14.3779,53.1765],[14.4416,53.2518],[14.3913,53.334],[14.2488,53.2591],[14.1032,53.2725],[14.2395,53.382],[14.2426,53.4271],[13.9206,53.4271],[13.8693,53.508],[13.709,53.4754],[13.5389,53.3967],[13.4804,53.3086],[13.4058,53.2747],[13.2823,53.2878],[13.154,53.2593],[13.001,53.1677],[12.5122,53.2727],[12.4301,53.2685],[12.1869,53.369],[12.0637,53.3561],[12.0119,53.2996],[11.8392,53.2265],[11.7002,53.2484],[11.5357,53.205],[11.5552,53.1461],[11.3943,53.1082],[11.2741,53.1175],[11.5813,53.0429],[11.7629,52.9951],[11.8319,52.9282],[11.9655,52.8852],[12.0929,52.8917],[12.2033,52.8659],[12.2332,52.8163],[12.191,52.739],[12.2281,52.6902],[12.162,52.6361],[12.1496,52.5199],[12.2883,52.5062],[12.247,52.4424],[12.1991,52.1939],[12.4208,52.0116],[12.5615,51.9717],[12.6668,51.9944],[12.8719,51.9129],[13.0662,51.8526],[13.2368,51.8555],[13.1635,51.789],[13.1816,51.7086],[13.0617,51.6151],[13.1715,51.5662],[13.1982,51.4328],[13.2522,51.3852],[13.4108,51.4214],[13.5217,51.3669],[13.7665,51.348],[13.9703,51.3592],[14.067,51.4739],[14.1588,51.5269],[14.3386,51.5099],[14.5093,51.5569],[14.7068,51.5408]],[[13.6263,52.487],[13.7509,52.4503],[13.6373,52.376],[13.4581,52.4167],[13.0921,52.4137],[13.1574,52.6003],[13.2997,52.6513],[13.5033,52.6102],[13.6485,52.5316],[13.6263,52.487]]]},"properties":{"iso":"DE-BB","name":"Brandenburg","name_de":"Brandenburg","country":"DE"}},
{"type":"Feature","geometry":{"type":"MultiPolygon","coordinates":[[[[14.3913,53.334],[14.3599,53.4441],[14.3042,53.5085],[14.261,53.6562],[14.2645,53.7516],[14.1061,53.7434],[13.9842,53.774],[13.8185,53.878],[13.8901,53.9129],[13.7581,54.031],[13.8081,54.1047],[13.6834,54.168],[13.4793,54.1252],[13.3218,54.1945],[13.2888,54.2343],[13.1149,54.28],[13.0088,54.4381],[12.876,54.3654],[12.6773,54.3921],[12.6946,54.4337],[12.502,54.4736],[12.3421,54.3039],[12.1869,54.2434],[12.1089,54.183],[11.6579,54.1422],[11.6194,54.0773],[11.4917,54.0023],[11.459,53.9167],[11.2429,53.9452],[11.1751,54.018],[11.0535,54.0085],[10.906,53.9612],[10.7633,53.8651],[10.7609,53.7467],[10.9381,53.6847],[10.9544,53.5661],[10.8283,53.5674],[10.8204,53.5148],[10.6354,53.4452],[10.6012,53.3718],[10.7316,53.352],[10.7394,53.3085],[11.0894,53.1442],[11.1434,53.1727],[11.2741,53.1175],[11.3943,53.1082],[11.5552,53.1461],[11.5357,53.205],[11.7002,53.2484],[11.8392,53.2265],[12.0119,53.2996],[12.0637,53.3561],[12.1869,53.369],[12.4301,53.2685],[12.5122,53.2727],[13.001,53.1677],[13.154,53.2593],[13.2823,53.2878],[13.4058,53.2747],[13.4804,53.3086],[13.5389,53.3967],[13.709,53.4754],[13.8693,53.508],[13.9206,53.4271],[14.2426,53.4271],[14.2395,53.382],[14.1032,53.2725],[14.2488,53.2591],[14.3913,53.334]]],[[[14.2101,53.9385],[14.0166,54.06],[13.8062,54.1166],[13.823,54.0379],[13.9461,54.0666],[14.0513,54.0051],[13.9019,53.9698],[13.9317,53.8993],[13.8753,53.8441],[14.2008,53.8782],[14.2101,53.9385]]],[[[13.6983,54.3921],[13.6095,54.4138],[13.5755,54.4719],[13.6773,54.5405],[13.6405,54.5857],[13.4663,54.5769],[13.3748,54.5256],[13.1664,54.5494],[13.1818,54.453],[13.2512,54.3869],[13.1155,54.3381],[13.2101,54.2758],[13.347,54.2375],[13.4997,54.3449],[13.6983,54.3921]]]]},"properties":{"iso":"DE-MV","name":"Mecklenburg-Vorpommern","name_de":"Mecklenburg-Vorpommern","country":"DE"}},
{"type":"Feature","geometry":{"type":"MultiPolygon","coordinates":[[[[8.5572,53.5199],[8.6391,53.5167],[8.6253,53.605],[8.513,53.6171],[8.5572,53.5199]]],[[[8.5645,53.2118],[8.7027,53.0799],[8.9145,53.0246],[8.9899,53.0936],[8.7455,53.1916],[8.5645,53.2118]]]]},"properties":{"iso":"DE-HB","name":"Bremen","name_de":"Freie Hansestadt Bremen","country":"DE"}},
{"type":"Feature","geometry":{"type":"Polygon","coordinates":[[[9.764,53.5477],[9.8106,53.4624],[9.9093,53.4181],[10.0831,53.4509],[10.1865,53.4044],[10.328,53.4327],[10.1832,53.529],[10.2228,53.6337],[10.1423,53.7133],[9.7408,53.5726],[9.764,53.5477]]]},"properties":{"iso":"DE-HH","name":"Hamburg","name_de":"Hamburg","country":"DE"}},
{"type":"Feature","geometry":{"type":"Polygon","coordinates":[[[8.4462,46.7692],[8.3916,46.7751],[8.3682,46.7895],[8.2909,46.7617],[8.1581,46.759],[8.0437,46.7883],[7.9771,46.7789],[7.8705,46.8503],[7.8757,46.9244],[7.9525,47.0027],[7.8733,47.0481],[7.8871,47.1283],[7.8393,47.2318],[7.8229,47.269],[7.6863,47.2942],[7.5834,47.2776],[7.6769,47.1788],[7.4376,47.1243],[7.3488,47.2166],[7.5563,47.3182],[7.3872,47.3126],[7.1547,47.2475],[7.0743,47.2432],[6.9935,47.1844],[6.8498,47.1651],[6.8798,47.0898],[7.0391,47.1234],[7.0825,47.096],[7.0211,46.9897],[7.0624,46.9782],[7.2159,47.0042],[7.2053,46.9087],[7.3149,46.8559],[7.3127,46.7227],[7.3827,46.6908],[7.3191,46.5876],[7.2425,46.5561],[7.2004,46.3847],[7.2278,46.3314],[7.4042,46.3786],[7.4947,46.374],[7.6244,46.4434],[7.7231,46.4202],[7.9661,46.5157],[8.0031,46.5574],[8.1903,46.5219],[8.3387,46.5663],[8.4094,46.6557],[8.4462,46.7692]]]},"properties":{"iso":"CH-BE","name":"Bern","name_de":"Kanton Bern","country":"CH"}},
{"type":"Feature","geometry":{"type":"Polygon","coordinates":[[[8.4056,47.1423],[8.3368,47.1733],[8.2886,47.2681],[8.1998,47.2321],[8.0893,47.2612],[7.8393,47.2318],[7.8871,47.1283],[7.8733,47.0481],[7.9525,47.0027],[7.8757,46.9244],[7.8705,46.8503],[7.9771,46.7789],[8.0437,46.7883],[8.0767,46.8982],[8.2271,46.9716],[8.2681,46.9979],[8.4651,46.9933],[8.3877,47.0709],[8.4424,47.1133],[8.4056,47.1423]]]},"properties":{"iso":"CH-LU","name":"Lucerne","name_de":"Kanton Luzern","country":"CH"}},
{"type":"Feature","geometry":{"type":"Polygon","coordinates":[[[8.4424,47.1133],[8.6375,47.1002],[8.6835,47.1654],[8.5708,47.2173],[8.4074,47.2455],[8.4056,47.1423],[8.4424,47.1133]]]},"properties":{"iso":"CH-ZG","name":"Zug","name_de":"Kanton Zug","country":"CH"}},
{"type":"Feature","geometry":{"type":"Polygon","coordinates":[[[8.9303,46.9222],[8.6092,46.9596],[8.5617,46.9881],[8.4588,46.9014],[8.4726,46.8557],[8.4462,46.7692],[8.4094,46.6557],[8.4076,46.5932],[8.4769,46.5318],[8.5487,46.585],[8.6779,46.5836],[8.6794,46.6946],[8.7853,46.7333],[8.8717,46.8154],[8.9373,46.8711],[8.9303,46.9222]]]},"properties":{"iso":"CH-UR","name":"Uri","name_de":"Kanton Uri","country":"CH"}},
{"type":"Feature","geometry":{"type":"Polygon","coordinates":[[[8.5617,46.9881],[8.6092,46.9596],[8.9303,46.9222],[8.9603,46.955],[8.8899,47.0265],[8.9574,47.0803],[8.9851,47.1689],[8.9241,47.2205],[8.7754,47.2206],[8.6835,47.1654],[8.6375,47.1002],[8.4424,47.1133],[8.3877,47.0709],[8.4651,46.9933],[8.5617,46.9881]]]},"properties":{"iso":"CH-SZ","name":"Schwyz","name_de":"Kanton Schwyz","country":"CH"}},
{"type":"Feature","geometry":{"type":"Polygon","coordinates":[[[8.9303,46.9222],[8.9373,46.8711],[8.8717,46.8154],[9.0032,46.8196],[9.2409,46.9203],[9.2378,46.9923],[9.1578,47.0312],[9.1799,47.1222],[8.9851,47.1689],[8.9574,47.0803],[8.8899,47.0265],[8.9603,46.955],[8.9303,46.9222]]]},"properties":{"iso":"CH-GL","name":"Glarus","name_de":"Kanton Glarus","country":"CH"}},
{"type":"Feature","geometry":{"type":"Polygon","coordinates":[[[8.4651,46.9933],[8.2681,46.9979],[8.2271,46.9716],[8.3076,46.9673],[8.3268,46.8175],[8.3682,46.7895],[8.3916,46.7751],[8.3602,46.8672],[8.4726,46.8557],[8.4588,46.9014],[8.5617,46.9881],[8.4651,46.9933]]]},"properties":{"iso":"CH-NW","name":"Nidwalden","name_de":"Kanton Nidwalden","country":"CH"}},
{"type":"Feature","geometry":{"type":"MultiPolygon","coordinates":[[[[7.2425,46.5561],[7.3191,46.5876],[7.3827,46.6908],[7.3127,46.7227],[7.3149,46.8559],[7.2053,46.9087],[7.2159,47.0042],[7.0624,46.9782],[7.0941,46.9077],[7.0391,46.8621],[6.9459,46.9472],[6.9074,46.9255],[7.0006,46.8412],[6.94,46.741],[6.807,46.5807],[6.9747,46.4904],[7.0003,46.4445],[7.2425,46.5561]]],[[[6.8751,46.9072],[6.766,46.8453],[6.7935,46.7904],[6.9185,46.7862],[6.9296,46.8522],[6.8751,46.9072]]]]},"properties":{"iso":"CH-FR","name":"Fribourg","name_de":"Kanton Freiburg","country":"CH"}},
{"type":"Feature","geometry":{"type":"MultiPolygon","coordinates":[[[[8.3682,46.7895],[8.3268,46.8175],[8.3076,46.9673],[8.2271,46.9716],[8.0767,46.8982],[8.0437,46.7883],[8.1581,46.759],[8.2909,46.7617],[8.3682,46.7895]]],[[[8.3916,46.7751],[8.4462,46.7692],[8.4726,46.8557],[8.3602,46.8672],[8.3916,46.7751]]]]},"properties":{"iso":"CH-OW","name":"Obwalden","name_de":"Kanton Obwalden","country":"CH"}},
{"type":"Feature","geometry":{"type":"Polygon","coordinates":[[[9.4866,47.3936],[9.5405,47.3972],[9.5815,47.4244],[9.6084,47.4498],[9.5264,47.4683],[9.4154,47.4164],[9.226,47.4003],[9.1861,47.3577],[9.2174,47.2715],[9.3315,47.2531],[9.3028,47.3035],[9.3498,47.388],[9.4882,47.3534],[9.4866,47.3936]]]},"properties":{"iso":"CH-AR","name":"Appenzell Ausserrhoden","name_de":"Kanton Appenzell Ausserrhoden","country":"CH"}},
{"type":"Feature","geometry":{"type":"Polygon","coordinates":[[[9.4882,47.3534],[9.3498,47.388],[9.3028,47.3035],[9.3315,47.2531],[9.4378,47.261],[9.4882,47.3534]]]},"properties":{"iso":"CH-AI","name":"Appenzell Innerrhoden","name_de":"Kanton Appenzell Innerrhoden","country":"CH"}},
{"type":"Feature","geometry":{"type":"Polygon","coordinates":[[[9.9492,51.3818],[9.808,51.4073],[9.6826,51.315],[9.5694,51.3423],[9.6386,51.4087],[9.5968,51.5116],[9.6713,51.5593],[9.6234,51.6295],[9.4401,51.649],[9.3459,51.6123],[9.336,51.554],[9.1087,51.4429],[9.0154,51.5092],[8.9062,51.4809],[8.9351,51.3913],[8.6855,51.3634],[8.5781,51.2759],[8.7242,51.2658],[8.7502,51.1728],[8.6584,51.0884],[8.5247,51.0933],[8.5449,51.0207],[8.3641,50.8616],[8.2684,50.8684],[8.1393,50.785],[8.1345,50.684],[8.1638,50.5858],[8.1072,50.5265],[8.0003,50.5088],[8.0223,50.3891],[8.1227,50.2779],[7.9222,50.2001],[7.8963,50.1207],[7.7714,50.0535],[7.9186,49.9739],[8.1738,50.0458],[8.3354,49.9596],[8.3401,49.891],[8.4391,49.7265],[8.3606,49.6645],[8.4168,49.5795],[8.4982,49.5734],[8.6715,49.6226],[8.7181,49.5418],[8.8284,49.5028],[8.8168,49.4022],[9.0351,49.5013],[9.1107,49.5751],[9.1467,49.7462],[9.0267,49.9074],[9.0103,50.0968],[9.2288,50.1438],[9.3291,50.1393],[9.4067,50.0923],[9.5067,50.1081],[9.511,50.2362],[9.6612,50.2344],[9.7486,50.3056],[9.7667,50.4021],[9.8589,50.399],[10.0009,50.4484],[10.055,50.5165],[10.0521,50.6696],[9.9132,50.6927],[9.9494,50.8152],[10.056,50.8826],[10.0511,51.007],[10.1424,51.0552],[10.2303,51.1843],[10.0813,51.2232],[10.0491,51.2766],[9.947,51.3039],[9.9492,51.3818]]]},"properties":{"iso":"DE-HE","name":"Hessen","name_de":"Hessen","country":"DE"}},
{"type":"Feature","geometry":{"type":"Polygon","coordinates":[[[9.9492,51.3818],[9.947,51.3039],[10.0491,51.2766],[10.0813,51.2232],[10.2303,51.1843],[10.1424,51.0552],[10.0511,51.007],[10.056,50.8826],[9.9494,50.8152],[9.9132,50.6927],[10.0521,50.6696],[10.055,50.5165],[10.1096,50.5555],[10.238,50.5101],[10.5924,50.3229],[10.6171,50.2244],[10.8379,50.2717],[10.715,50.3219],[10.7889,50.3863],[10.9434,50.3873],[10.9776,50.3554],[11.1158,50.3638],[11.1354,50.3093],[11.2553,50.2749],[11.2803,50.3586],[11.2486,50.4726],[11.3467,50.5187],[11.4271,50.5131],[11.4212,50.443],[11.5317,50.3784],[11.7847,50.4143],[11.9053,50.4152],[11.9894,50.5461],[12.1454,50.5625],[12.1869,50.6264],[12.2788,50.6797],[12.258,50.7925],[12.4244,50.8243],[12.5275,50.8766],[12.6472,50.8999],[12.5457,50.9713],[12.4837,51.0583],[12.2646,51.0838],[12.2754,51.0098],[12.1595,50.952],[12.0046,50.949],[11.8607,51.0226],[11.7326,51.0175],[11.6891,51.0919],[11.4274,51.0988],[11.4203,51.1597],[11.3445,51.2044],[11.4519,51.2715],[11.3149,51.3833],[10.9991,51.4087],[10.9115,51.5711],[10.8035,51.6326],[10.6976,51.6374],[10.6542,51.5782],[10.5142,51.5563],[10.4217,51.5919],[10.3646,51.5424],[10.1497,51.4318],[10.0457,51.4321],[9.9492,51.3818]]]},"properties":{"iso":"DE-TH","name":"Thüringen","name_de":"Thüringen","country":"DE"}},
{"type":"Feature","geometry":{"type":"Polygon","coordinates":[[[10.6976,51.6374],[10.8035,51.6326],[10.9115,51.5711],[10.9991,51.4087],[11.3149,51.3833],[11.4519,51.2715],[11.3445,51.2044],[11.4203,51.1597],[11.4274,51.0988],[11.6891,51.0919],[11.7326,51.0175],[11.8607,51.0226],[12.0046,50.949],[12.1595,50.952],[12.2754,51.0098],[12.2646,51.0838],[12.2226,51.089],[12.1323,51.2918],[12.1817,51.3248],[12.157,51.449],[12.2354,51.5622],[12.4306,51.5725],[12.4435,51.6015],[12.6621,51.6015],[12.9147,51.6499],[13.0617,51.6151],[13.1816,51.7086],[13.1635,51.789],[13.2368,51.8555],[13.0662,51.8526],[12.8719,51.9129],[12.6668,51.9944],[12.5615,51.9717],[12.4208,52.0116],[12.1991,52.1939],[12.247,52.4424],[12.2883,52.5062],[12.1496,52.5199],[12.162,52.6361],[12.2281,52.6902],[12.191,52.739],[12.2332,52.8163],[12.2033,52.8659],[12.0929,52.8917],[11.9655,52.8852],[11.8319,52.9282],[11.7629,52.9951],[11.5813,53.0429],[11.502,52.9442],[11.2643,52.8775],[11.0147,52.9119],[10.9607,52.8651],[10.762,52.8384],[10.7569,52.7865],[10.9527,52.5933],[11.0017,52.4981],[10.9391,52.4621],[11.073,52.3722],[10.9993,52.3425],[11.0829,52.2251],[11.0382,52.1317],[10.9456,52.0577],[10.6608,52.0447],[10.5902,51.9762],[10.6399,51.8836],[10.5802,51.8449],[10.5853,51.7779],[10.6976,51.6374]]]},"properties":{"iso":"DE-ST","name":"Sachsen-Anhalt","name_de":"Sachsen-Anhalt","country":"DE"}},
{"type":"Feature","geometry":{"type":"Polygon","coordinates":[[[13.6263,52.487],[13.6485,52.5316],[13.5033,52.6102],[13.2997,52.6513],[13.1574,52.6003],[13.0921,52.4137],[13.4581,52.4167],[13.6373,52.376],[13.7509,52.4503],[13.6263,52.487]]]},"properties":{"iso":"DE-BE","name":"Berlin","name_de":"Berlin","country":"DE"}},
{"type":"Feature","geometry":{"type":"Polygon","coordinates":[[[16.4826,48.2885],[16.4464,48.3281],[16.1882,48.2301],[16.2326,48.1492],[16.5714,48.1531],[16.5561,48.249],[16.4826,48.2885]]]},"properties":{"iso":"AT-9","name":"Wien","name_de":"Wien","country":"AT"}}
]}